OBJECT_NAME,OBJECT_ID,EPOCH,MEAN_MOTION,ECCENTRICITY,INCLINATION,RA_OF_ASC_NODE,ARG_OF_PERICENTER,MEAN_ANOMALY,EPHEMERIS_TYPE,CLASSIFICATION_TYPE,NORAD_CAT_ID,ELEMENT_SET_NO,REV_AT_EPOCH,BSTAR,MEAN_MOTION_DOT,MEAN_MOTION_DDOT
STARLINK-35136,2025-200T,2026-06-12T18:13:38.947584,15.05662258,.0001775,97.3663,232.6266,163.3638,196.7648,0,U,65537,999,4334,.29319E-3,.4177E-4,0
STARLINK-35144,2025-200U,2026-06-12T18:05:40.955136,15.05661068,.0001519,97.3671,232.6332,64.6327,295.5058,0,U,65538,999,4343,.41849E-3,.5988E-4,0
STARLINK-35110,2025-200V,2026-06-12T18:49:33.024864,15.05663629,.0002049,97.3663,232.7469,141.3391,218.7984,0,U,65539,999,4344,.50474E-3,.7235E-4,0
STARLINK-35052,2025-200W,2026-06-12T04:52:10.750944,15.05641481,.00012742,97.3742,232.1587,26.2143,333.9148,0,U,65540,999,4327,-.20602718E-4,-.355E-5,0
STARLINK-35087,2025-200X,2026-06-12T17:45:44.907840,15.05661983,.0001188,97.3676,232.6550,69.2156,290.9199,0,U,65541,999,4343,.31489E-3,.449E-4,0
STARLINK-35100,2025-200Y,2026-06-12T18:29:38.090400,15.05578481,.0001249,97.3719,232.6158,84.5253,275.6117,0,U,65542,999,4343,-.21954E-2,-.31533E-3,0
STARLINK-35105,2025-200Z,2026-06-12T06:19:53.596992,15.05655230,.000299,97.3702,232.2268,127.9303,232.2196,0,U,65543,999,4336,-.3567057E-3,-.5202E-4,0
STARLINK-35267,2025-207A,2026-06-12T18:23:39.723936,15.05664306,.0002158,97.3650,231.4734,125.6496,234.4933,0,U,65592,999,4255,.48318E-3,.6924E-4,0
STARLINK-35269,2025-207B,2026-06-12T04:50:13.287552,15.05660178,.00016457,97.3697,231.0142,115.5427,244.5971,0,U,65593,999,4247,.26250509E-3,.3733E-4,0
STARLINK-35191,2025-207C,2026-06-12T17:59:44.460960,15.05661652,.0001098,97.3672,231.4927,133.1614,226.9705,0,U,65594,999,4239,.47963E-3,.6872E-4,0
STARLINK-35261,2025-207D,2026-06-12T18:47:36.011616,15.05666771,.0001744,97.3661,231.6050,109.4453,250.6963,0,U,65595,999,4257,.28991E-3,.413E-4,0
STARLINK-35253,2025-207E,2026-06-12T18:11:42.050976,15.05664016,.0001827,97.3651,231.4851,137.4089,222.7281,0,U,65596,999,4235,.34688E-3,.4953E-4,0
STARLINK-35263,2025-207F,2026-06-12T17:47:46.788000,15.05661601,.000165,97.3676,231.5065,142.2661,217.8683,0,U,65597,999,4256,.38967E-3,.5571E-4,0
STARLINK-35248,2025-207G,2026-06-12T04:38:15.740736,15.05664084,.00020203,97.3688,231.0267,121.4364,238.7062,0,U,65598,999,4248,.45790967E-3,.6558E-4,0
STARLINK-35245,2025-207H,2026-06-12T18:35:38.773248,15.05660499,.0002299,97.3660,231.6169,113.1651,246.9818,0,U,65599,999,4257,.70728E-3,.10165E-3,0
STARLINK-35229,2025-207J,2026-06-12T18:19:40.810656,15.05654744,.0001957,97.3665,231.4791,109.3906,250.7533,0,U,65600,999,4256,.14178E-3,.1989E-4,0
STARLINK-35234,2025-207K,2026-06-12T18:07:42.871584,15.05663613,.0001028,97.3652,231.4907,73.2402,286.8938,0,U,65601,999,4256,.36341E-3,.5192E-4,0
STARLINK-35255,2025-207L,2026-06-12T17:43:47.438400,15.05663596,.0000739,97.3665,231.5125,131.8284,228.3006,0,U,65602,999,4256,.28114E-3,.4003E-4,0
STARLINK-35250,2025-207M,2026-06-12T04:34:16.397184,15.05659958,.00023726,97.3730,231.0288,152.9173,207.2179,0,U,65603,999,4248,.32346247E-3,.4614E-4,0
STARLINK-35251,2025-207N,2026-06-12T17:51:45.597600,15.05640791,.000249,97.3720,231.5103,169.6808,190.4471,0,U,65604,999,4256,-.93118E-3,-.13465E-3,0
STARLINK-35171,2025-207P,2026-06-12T04:46:13.472256,15.05686999,.00023526,97.3727,231.0193,130.7470,229.3962,0,U,65605,999,4232,.1199459E-2,.17308E-3,0
STARLINK-35195,2025-207Q,2026-06-12T04:10:21.224064,15.05663880,.00019948,97.3688,231.0548,93.8039,266.3416,0,U,65606,999,4248,.25198013E-3,.3581E-4,0
STARLINK-35156,2025-207R,2026-06-12T18:39:37.989792,15.05661225,.0003071,97.3673,231.6120,103.6874,256.4695,0,U,65607,999,4257,.39468E-3,.5644E-4,0
STARLINK-35185,2025-207S,2026-06-12T03:18:30.627072,15.05650402,.0000995,97.3735,230.9469,45.0129,315.1179,0,U,65608,999,4247,.16480436E-3,.2321E-4,0
STARLINK-35053,2025-207T,2026-06-12T18:51:36.239040,15.05671331,.000161,97.3665,231.6018,128.6382,231.4990,0,U,65609,999,4241,.69255E-3,.9955E-4,0
STARLINK-35178,2025-207U,2026-06-12T17:55:44.918688,15.05651733,.0004154,97.3728,231.5018,177.5927,182.5321,0,U,65610,999,4256,-.37603E-3,-.548E-4,0
STARLINK-35186,2025-207V,2026-06-12T18:27:39.140928,15.05659825,.0001642,97.3671,231.4708,83.5708,276.5706,0,U,65611,999,4256,.44679E-3,.6396E-4,0
STARLINK-35154,2025-207W,2026-06-12T18:43:36.808032,15.05666492,.0002093,97.3665,231.6097,106.9084,253.2373,0,U,65612,999,4241,.45971E-3,.6585E-4,0
STARLINK-35162,2025-207X,2026-06-12T20:39:14.715936,15.05665028,.000157,97.3671,231.6563,109.1360,251.0037,0,U,65613,999,4258,.29234E-3,.4165E-4,0
STARLINK-35206,2025-207Y,2026-06-12T18:03:43.775136,15.05661968,.0002146,97.3679,231.4935,112.4665,247.6790,0,U,65614,999,4245,.31903E-3,.455E-4,0
