STARLINK-35136          
1 65537U 25200T   26163.75947856  .00004177  00000+0  29319-3 0  9999
2 65537  97.3663 232.6266 0001775 163.3638 196.7648 15.05662258 43344
STARLINK-35144          
1 65538U 25200U   26163.75394624  .00005988  00000+0  41849-3 0  9992
2 65538  97.3671 232.6332 0001519  64.6327 295.5058 15.05661068 43433
STARLINK-35110          
1 65539U 25200V   26163.78441001  .00007235  00000+0  50474-3 0  9999
2 65539  97.3663 232.7469 0002049 141.3391 218.7984 15.05663629 43441
STARLINK-35052          
1 65540U 25200W   26163.20290221 -.00000355  00000+0 -20603-4 0  9994
2 65540  97.3742 232.1587 0001274  26.2143 333.9148 15.05641481 43276
STARLINK-35087          
1 65541U 25200X   26163.74010310  .00004490  00000+0  31489-3 0  9998
2 65541  97.3676 232.6550 0001188  69.2156 290.9199 15.05661983 43438
STARLINK-35100          
1 65542U 25200Y   26163.77057975 -.00031533  00000+0 -21954-2 0  9995
2 65542  97.3719 232.6158 0001249  84.5253 275.6117 15.05578481 43437
STARLINK-35105          
1 65543U 25200Z   26163.26381478 -.00005202  00000+0 -35671-3 0  9994
2 65543  97.3702 232.2268 0002990 127.9303 232.2196 15.05655230 43366
STARLINK-35267          
1 65592U 25207A   26163.76643199  .00006924  00000+0  48318-3 0  9993
2 65592  97.3650 231.4734 0002158 125.6496 234.4933 15.05664306 42552
STARLINK-35269          
1 65593U 25207B   26163.20154268  .00003733  00000+0  26251-3 0  9994
2 65593  97.3697 231.0142 0001645 115.5427 244.5971 15.05660178 42473
STARLINK-35191          
1 65594U 25207C   26163.74982015  .00006872  00000+0  47963-3 0  9993
2 65594  97.3672 231.4927 0001098 133.1614 226.9705 15.05661652 42396
STARLINK-35261          
1 65595U 25207D   26163.78305569  .00004130  00000+0  28991-3 0  9996
2 65595  97.3661 231.6050 0001744 109.4453 250.6963 15.05666771 42576
STARLINK-35253          
1 65596U 25207E   26163.75812559  .00004953  00000+0  34688-3 0  9999
2 65596  97.3651 231.4851 0001827 137.4089 222.7281 15.05664016 42350
STARLINK-35263          
1 65597U 25207F   26163.74151375  .00005571  00000+0  38967-3 0  9992
2 65597  97.3676 231.5065 0001650 142.2661 217.8683 15.05661601 42561
STARLINK-35248          
1 65598U 25207G   26163.19323774  .00006558  00000+0  45791-3 0  9995
2 65598  97.3688 231.0267 0002020 121.4364 238.7062 15.05664084 42487
STARLINK-35245          
1 65599U 25207H   26163.77475432  .00010165  00000+0  70728-3 0  9996
2 65599  97.3660 231.6169 0002299 113.1651 246.9818 15.05660499 42576
STARLINK-35229          
1 65600U 25207J   26163.76366679  .00001989  00000+0  14178-3 0  9991
2 65600  97.3665 231.4791 0001957 109.3906 250.7533 15.05654744 42565
STARLINK-35234          
1 65601U 25207K   26163.75535731  .00005192  00000+0  36341-3 0  9994
2 65601  97.3652 231.4907 0001028  73.2402 286.8938 15.05663613 42564
STARLINK-35255          
1 65602U 25207L   26163.73874350  .00004003  00000+0  28114-3 0  9995
2 65602  97.3665 231.5125 0000739 131.8284 228.3006 15.05663596 42566
STARLINK-35250          
1 65603U 25207M   26163.19046756  .00004614  00000+0  32346-3 0  9997
2 65603  97.3730 231.0288 0002372 152.9173 207.2179 15.05659958 42486
STARLINK-35251          
1 65604U 25207N   26163.74427775 -.00013465  00000+0 -93118-3 0  9993
2 65604  97.3720 231.5103 0002490 169.6808 190.4471 15.05640791 42560
STARLINK-35171          
1 65605U 25207P   26163.19876704  .00017308  00000+0  11995-2 0  9993
2 65605  97.3727 231.0193 0002352 130.7470 229.3962 15.05686999 42324
STARLINK-35195          
1 65606U 25207Q   26163.17385676  .00003581  00000+0  25198-3 0  9994
2 65606  97.3688 231.0548 0001994  93.8039 266.3416 15.05663880 42482
STARLINK-35156          
1 65607U 25207R   26163.77752303  .00005644  00000+0  39468-3 0  9993
2 65607  97.3673 231.6120 0003071 103.6874 256.4695 15.05661225 42574
STARLINK-35185          
1 65608U 25207S   26163.13785448  .00002321  00000+0  16480-3 0  9998
2 65608  97.3735 230.9469 0000995  45.0129 315.1179 15.05650402 42470
STARLINK-35053          
1 65609U 25207T   26163.78583610  .00009955  00000+0  69255-3 0  9995
2 65609  97.3665 231.6018 0001610 128.6382 231.4990 15.05671331 42414
STARLINK-35178          
1 65610U 25207U   26163.74704767 -.00005480  00000+0 -37603-3 0  9994
2 65610  97.3728 231.5018 0004154 177.5927 182.5321 15.05651733 42563
STARLINK-35186          
1 65611U 25207V   26163.76920302  .00006396  00000+0  44679-3 0  9998
2 65611  97.3671 231.4708 0001642  83.5708 276.5706 15.05659825 42569
STARLINK-35154          
1 65612U 25207W   26163.78028713  .00006585  00000+0  45971-3 0  9992
2 65612  97.3665 231.6097 0002093 106.9084 253.2373 15.05666492 42418
STARLINK-35162          
1 65613U 25207X   26163.86058699  .00004165  00000+0  29234-3 0  9994
2 65613  97.3671 231.6563 0001570 109.1360 251.0037 15.05665028 42580
STARLINK-35206          
1 65614U 25207Y   26163.75258999  .00004550  00000+0  31903-3 0  9992
2 65614  97.3679 231.4935 0002146 112.4665 247.6790 15.05661968 42457
